{
  "type": "FeatureCollection",
  "features": [
    {
      "type": "Feature",
      "properties": {
        "norad_id": 47116,
        "name": "COSMOS 2251 DEB",
        "group": "cosmos-2251-debris",
        "lat": 54.666080616931204,
        "lon": 19.637806120859526,
        "alt_km": 580.2334505314511,
        "timestamp": "2025-12-21T05:44:51.985953+00:00",
        "meta_object_name": "COSMOS 2251 DEB",
        "meta_object_id": "1993-036BYJ",
        "meta_epoch": "2025-12-17T22:44:25.492992",
        "meta_mean_motion": 14.98433598,
        "meta_eccentricity": 0.00213127,
        "meta_inclination": 74.0233,
        "meta_ra_of_asc_node": 230.1515,
        "meta_arg_of_pericenter": 323.4041,
        "meta_mean_anomaly": 47.2172,
        "meta_ephemeris_type": 0,
        "meta_classification_type": "U",
        "meta_norad_cat_id": 47116,
        "meta_element_set_no": 999,
        "meta_rev_at_epoch": 59589,
        "meta_bstar": 0.0014083931,
        "meta_mean_motion_dot": 0.000169,
        "meta_mean_motion_ddot": 0,
        "tle_line1": "1 47116U 93036BYJ 25351.94751728  .00016900  00000+0  14084-2 0  9993",
        "tle_line2": "2 47116  74.0233 230.1515 0021312 323.4041  47.2172 14.98433598595896"
      },
      "geometry": {
        "type": "Point",
        "coordinates": [
          19.637806120859526,
          54.666080616931204
        ]
      }
    },
    {
      "type": "Feature",
      "properties": {
        "norad_id": 53093,
        "name": "COSMOS 2251 DEB",
        "group": "cosmos-2251-debris",
        "lat": 18.432603639768928,
        "lon": -68.82498378580958,
        "alt_km": 738.7185510163345,
        "timestamp": "2025-12-21T05:44:51.985962+00:00",
        "meta_object_name": "COSMOS 2251 DEB",
        "meta_object_id": "1993-036BYP",
        "meta_epoch": "2025-12-20T21:20:01.560480",
        "meta_mean_motion": 14.41920183,
        "meta_eccentricity": 0.00197162,
        "meta_inclination": 74.037,
        "meta_ra_of_asc_node": 286.3503,
        "meta_arg_of_pericenter": 2.1547,
        "meta_mean_anomaly": 357.969,
        "meta_ephemeris_type": 0,
        "meta_classification_type": "U",
        "meta_norad_cat_id": 53093,
        "meta_element_set_no": 999,
        "meta_rev_at_epoch": 17843,
        "meta_bstar": 0.00056024789,
        "meta_mean_motion_dot": 1.813e-05,
        "meta_mean_motion_ddot": 0,
        "tle_line1": "1 53093U 93036BYP 25354.88890695  .00001813  00000+0  56025-3 0  9996",
        "tle_line2": "2 53093  74.0370 286.3503 0019716   2.1547 357.9690 14.41920183178438"
      },
      "geometry": {
        "type": "Point",
        "coordinates": [
          -68.82498378580958,
          18.432603639768928
        ]
      }
    }
  ]
}